NORAD_CAT_ID,OBJECT_NAME,OBJECT_TYPE,EPOCH,MEAN_MOTION,ECCENTRICITY,INCLINATION,RA_OF_ASC_NODE,ARG_OF_PERICENTER,MEAN_ANOMALY,BSTAR,MEAN_MOTION_DOT,MEAN_MOTION_DDOT,TLE_LINE0,TLE_LINE1,TLE_LINE2,SEMIMAJOR_AXIS,PERIOD,APOGEE,PERIGEE,DECAYED
50825.0,STARLINK-3332,PAYLOAD,2022-11-19 07:35:41,15.08844915,0.000257,53.215,184.7469,35.4904,324.6259,0.00013755,1.902e-05,0.0,0 STARLINK-3332,1 50825U 22001Y   22323.31645267  .00001902  00000-0  13755-3 0  9997,2 50825  53.2150 184.7469 0002570  35.4904 324.6259 15.08844915 48284,6917.865,95.437,541.508,537.952,0.0
50825.0,STARLINK-3332,PAYLOAD,2022-11-19 15:32:36,15.08849637,0.0002573,53.2152,183.2599,34.6122,325.5037,8.789e-05,1.111e-05,0.0,0 STARLINK-3332,1 50825U 22001Y   22323.64764896  .00001111  00000-0  87890-4 0  9997,2 50825  53.2152 183.2599 0002573  34.6122 325.5037 15.08849637 49607,6917.851,95.437,541.496,537.936,0.0
50825.0,STARLINK-3332,PAYLOAD,2022-11-20 01:04:56,15.08837562,0.000238,53.2156,181.4753,38.3803,321.7358,-0.00011742,-2.157e-05,0.0,0 STARLINK-3332,1 50825U 22001Y   22324.04509336 -.00002157  00000-0 -11742-3 0  9993,2 50825  53.2156 181.4753 0002380  38.3803 321.7358 15.08837562 49660,6917.888000000001,95.438,541.399,538.106,0.0
50825.0,STARLINK-3332,PAYLOAD,2022-11-20 13:48:01,15.08838133,0.0002695,53.2165,179.0961,33.8935,326.2229,-3.5996e-06,-3.46e-06,0.0,0 STARLINK-3332,1 50825U 22001Y   22324.57501925 -.00000346  00000-0 -35996-5 0  9994,2 50825  53.2165 179.0961 0002695  33.8935 326.2229 15.08838133 48479,6917.886,95.438,541.615,537.887,0.0
50825.0,STARLINK-3332,PAYLOAD,2022-11-20 20:09:33,15.08838737,0.0002606,53.2159,177.9068,33.6458,326.4699,8.356e-05,1.042e-05,0.0,0 STARLINK-3332,1 50825U 22001Y   22324.83997565  .00001042  00000-0  83560-4 0  9993,2 50825  53.2159 177.9068 0002606  33.6458 326.4699 15.08838737 48515,6917.884,95.438,541.552,537.946,0.0
50825.0,STARLINK-3332,PAYLOAD,2022-11-21 07:17:15,15.08844038,0.000261,53.2159,175.8253,35.0244,325.0919,9.4791e-05,1.221e-05,0.0,0 STARLINK-3332,1 50825U 22001Y   22325.30365278  .00001221  00000-0  94791-4 0  9993,2 50825  53.2159 175.8253 0002610  35.0244 325.0919 15.08844038 49851,6917.868,95.437,541.539,537.927,0.0
50825.0,STARLINK-3332,PAYLOAD,2022-11-21 13:38:48,15.08840446,0.0002611,53.2159,174.6359,35.708,324.4087,4.0771e-05,3.6000000000000007e-06,0.0,0 STARLINK-3332,1 50825U 22001Y   22325.56861599  .00000360  00000-0  40771-4 0  9990,2 50825  53.2159 174.6359 0002611  35.7080 324.4087 15.08840446 48623,6917.879,95.438,541.55,537.938,0.0
50825.0,STARLINK-3332,PAYLOAD,2022-11-21 15:14:11,15.08839058,0.0002627,53.2165,174.3386,36.5884,323.5287,7.672899999999999e-06,-1.66e-06,0.0,0 STARLINK-3332,1 50825U 22001Y   22325.63485773 -.00000166  00000-0  76729-5 0  9992,2 50825  53.2165 174.3386 0002627  36.5884 323.5287 15.08839058 49906,6917.8830000000025,95.438,541.566,537.931,0.0
50825.0,STARLINK-3332,PAYLOAD,2022-11-21 18:24:58,15.08835103,0.0002621,53.2161,173.7438,35.926,324.1908,-2.3162e-05,-6.57e-06,0.0,0 STARLINK-3332,1 50825U 22001Y   22325.76734107 -.00000657  00000-0 -23162-4 0  9992,2 50825  53.2161 173.7438 0002621  35.9260 324.1908 15.08835103 48653,6917.895,95.438,541.5740000000002,537.947,0.0
50825.0,STARLINK-3332,PAYLOAD,2022-11-22 00:46:31,15.08830424,0.000269,53.2161,172.5546,37.096,323.0218,2.9914e-05,1.88e-06,0.0,0 STARLINK-3332,1 50825U 22001Y   22326.03230397  .00000188  00000-0  29914-4 0  9993,2 50825  53.2161 172.5546 0002690  37.0960 323.0218 15.08830424 49964,6917.91,95.438,541.636,537.914,0.0
50825.0,STARLINK-3332,PAYLOAD,2022-11-22 07:08:03,15.08830476,0.0002683,53.216,171.3651,37.3354,322.7825,3.5058e-05,2.69e-06,0.0,0 STARLINK-3332,1 50825U 22001Y   22326.29726520  .00000269  00000-0  35058-4 0  9995,2 50825  53.2160 171.3651 0002683  37.3354 322.7825 15.08830476 48730,6917.91,95.438,541.631,537.918,0.0
50825.0,STARLINK-3332,PAYLOAD,2022-11-22 19:51:08,15.08836524,0.0002672,53.2159,168.986,37.7985,322.3195,2.2117e-05,6.3e-07,0.0,0 STARLINK-3332,1 50825U 22001Y   22326.82718344  .00000063  00000-0  22117-4 0  9993,2 50825  53.2159 168.9860 0002672  37.7985 322.3195 15.08836524 48819,6917.891,95.438,541.604,537.908,0.0
50825.0,STARLINK-3332,PAYLOAD,2022-11-23 13:20:23,15.08839616,0.0002719,53.2162,165.7152,38.6563,321.4624,2.7504e-05,1.49e-06,0.0,0 STARLINK-3332,1 50825U 22001Y   22327.55582268  .00000149  00000-0  27504-4 0  9998,2 50825  53.2162 165.7152 0002719  38.6563 321.4624 15.08839616 50192,6917.882,95.438,541.628,537.866,0.0
50825.0,STARLINK-3332,PAYLOAD,2022-11-23 19:41:55,15.08836885,0.0002747,53.216,164.5257,38.625,321.4938,0.00011108,1.4800000000000002e-05,0.0,0 STARLINK-3332,1 50825U 22001Y   22327.82078222  .00001480  00000-0  11108-3 0  9999,2 50825  53.2160 164.5257 0002747  38.6250 321.4938 15.08836885 48962,6917.89,95.438,541.655,537.855,0.0
50825.0,STARLINK-3332,PAYLOAD,2022-11-24 19:32:42,15.08844659,0.0002804,53.2162,160.0657,41.6996,318.4209,0.00011757,1.583e-05,0.0,0 STARLINK-3332,1 50825U 22001Y   22328.81437817  .00001583  00000-0  11757-3 0  9992,2 50825  53.2162 160.0657 0002804  41.6996 318.4209 15.08844659 50388,6917.866,95.437,541.6709999999998,537.7909999999998,0.0
50825.0,STARLINK-3332,PAYLOAD,2022-11-25 13:01:56,15.08845825,0.0002847,53.2163,156.7948,43.7741,316.3477,6.564e-05,7.56e-06,0.0,0 STARLINK-3332,1 50825U 22001Y   22329.54301705  .00000756  00000-0  65640-4 0  9991,2 50825  53.2163 156.7948 0002847  43.7741 316.3477 15.08845825 49223,6917.863,95.437,541.697,537.758,0.0
50825.0,STARLINK-3332,PAYLOAD,2022-11-25 17:48:06,15.08842544,0.0002839,53.2162,155.9025,42.5872,317.534,3.204e-05,2.21e-06,0.0,0 STARLINK-3332,1 50825U 22001Y   22329.74173980  .00000221  00000-0  32040-4 0  9990,2 50825  53.2162 155.9025 0002839  42.5872 317.5340 15.08842544 50524,6917.873000000001,95.437,541.702,537.774,0.0
50825.0,STARLINK-3332,PAYLOAD,2022-11-26 04:55:48,15.08837262,0.000287,53.2159,153.8208,42.4332,317.6882,-1.9478e-05,-5.99e-06,0.0,0 STARLINK-3332,1 50825U 22001Y   22330.20542446 -.00000599  00000-0 -19478-4 0  9990,2 50825  53.2159 153.8208 0002870  42.4332 317.6882 15.08837262 50595,6917.889,95.438,541.739,537.768,0.0
50825.0,STARLINK-3332,PAYLOAD,2022-11-26 12:52:44,15.0883654,0.0002768,53.2155,152.3326,36.3778,323.7402,-1.8612e-06,-3.18e-06,0.0,0 STARLINK-3332,1 50825U 22001Y   22330.53662374 -.00000318  00000-0 -18612-5 0  9998,2 50825  53.2155 152.3326 0002768  36.3778 323.7402 15.08836540 49376,6917.891,95.438,541.6709999999998,537.841,0.0
50825.0,STARLINK-3332,PAYLOAD,2022-11-26 19:14:16,15.08842416,0.0002848,53.2155,151.1435,42.7098,317.4115,-8.8181e-06,-4.29e-06,0.0,0 STARLINK-3332,1 50825U 22001Y   22330.80158026 -.00000429  00000-0 -88181-5 0  9993,2 50825  53.2155 151.1435 0002848  42.7098 317.4115 15.08842416 49414,6917.873000000001,95.437,541.7080000000002,537.768,0.0
50825.0,STARLINK-3332,PAYLOAD,2022-11-26 22:25:02,15.08842059,0.0002861,53.2156,150.5489,43.1511,316.9705,-1.0948e-05,-4.63e-06,0.0,0 STARLINK-3332,1 50825U 22001Y   22330.93406038 -.00000463  00000-0 -10948-4 0  9999,2 50825  53.2156 150.5489 0002861  43.1511 316.9705 15.08842059 50703,6917.874,95.437,541.7180000000002,537.76,0.0
50825.0,STARLINK-3332,PAYLOAD,2022-11-27 20:40:26,15.08838007,0.0002804,53.2158,146.3863,46.5007,313.6218,7.6733e-05,9.33e-06,0.0,0 STARLINK-3332,1 50825U 22001Y   22331.86141890  .00000933  00000-0  76733-4 0  9998,2 50825  53.2158 146.3863 0002804  46.5007 313.6218 15.08838007 49572,6917.886,95.438,541.691,537.812,0.0
50825.0,STARLINK-3332,PAYLOAD,2022-11-28 04:37:23,15.08826841,0.000299,53.216,144.8991,47.4429,312.6815,-1.7315999999999998e-05,-5.64e-06,0.0,0 STARLINK-3332,1 50825U 22001Y   22332.19263138 -.00000564  00000-0 -17316-4 0  9999,2 50825  53.2160 144.8991 0002990  47.4429 312.6815 15.08826841 50896,6917.920999999999,95.438,541.854,537.717,0.0
50825.0,STARLINK-3332,PAYLOAD,2022-11-29 04:28:10,15.08834324,0.0002858,53.2159,140.439,47.9252,312.1983,-1.3399e-06,-3.1e-06,0.0,0 STARLINK-3332,1 50825U 22001Y   22333.18623085 -.00000310  00000-0 -13399-5 0  9997,2 50825  53.2159 140.4390 0002858  47.9252 312.1983 15.08834324 51045,6917.898,95.438,541.74,537.786,0.0
50825.0,STARLINK-3332,PAYLOAD,2022-11-29 10:49:43,15.088347,0.0002974,53.2168,139.2481,48.7106,311.4141,-4.5965e-06,-3.62e-06,0.0,0 STARLINK-3332,1 50825U 22001Y   22333.45119217 -.00000362  00000-0 -45965-5 0  9995,2 50825  53.2168 139.2481 0002974  48.7106 311.4141 15.08834700 49816,6917.897,95.438,541.819,537.7040000000002,0.0
50825.0,STARLINK-3332,PAYLOAD,2022-11-29 20:22:01,15.08839232,0.0002938,53.2166,137.4639,52.2241,307.9017,2.7817e-05,1.54e-06,0.0,0 STARLINK-3332,1 50825U 22001Y   22333.84862957  .00000154  00000-0  27817-4 0  9996,2 50825  53.2166 137.4639 0002938  52.2241 307.9017 15.08839232 49872,6917.8830000000025,95.438,541.78,537.715,0.0
50825.0,STARLINK-3332,PAYLOAD,2022-11-30 10:40:29,15.08836426,0.0002911,53.2163,134.7882,49.0385,311.0859,0.0001211,1.639e-05,0.0,0 STARLINK-3332,1 50825U 22001Y   22334.44479017  .00001639  00000-0  12110-3 0  9992,2 50825  53.2163 134.7882 0002911  49.0385 311.0859 15.08836426 51238,6917.891,95.438,541.77,537.743,0.0
50825.0,STARLINK-3332,PAYLOAD,2022-11-30 17:02:02,15.08839665,0.0002905,53.2162,133.5989,49.466,310.6585,0.00014106,1.957e-05,0.0,0 STARLINK-3332,1 50825U 22001Y   22334.70974819  .00001957  00000-0  14106-3 0  9991,2 50825  53.2162 133.5989 0002905  49.4660 310.6585 15.08839665 50008,6917.880999999999,95.438,541.756,537.737,0.0
50825.0,STARLINK-3332,PAYLOAD,2022-12-01 04:09:43,15.08845404,0.000293,53.2161,131.5171,50.0528,310.0721,0.00015557,2.189e-05,0.0,0 STARLINK-3332,1 50825U 22001Y   22335.17342452  .00002189  00000-0  15557-3 0  9994,2 50825  53.2161 131.5171 0002930  50.0528 310.0721 15.08845404 51349,6917.864000000001,95.437,541.756,537.702,0.0
